{
  "norad_id": 40277,
  "name": "EUTELSAT 53A",
  "history": [
    {
      "epoch": "2026-03-27T23:38:06.680256",
      "apogee_km": 35792.597419962694,
      "perigee_km": 35781.116735375224,
      "latitude_deg": 0.022944648938005425,
      "longitude_deg": 6.240755839738995,
      "semi_major_axis_km": 42164.99407766896,
      "eccentricity": 0.00013614,
      "inclination_deg": 0.0232,
      "raan_deg": 191.6703,
      "arg_perigee_deg": 210.915,
      "mean_anomaly_deg": 190.351,
      "mean_motion_rev_day": 1.0027085
    }
  ]
}